NORAD_CAT_ID,OBJECT_NAME,OBJECT_TYPE,EPOCH,MEAN_MOTION,ECCENTRICITY,INCLINATION,RA_OF_ASC_NODE,ARG_OF_PERICENTER,MEAN_ANOMALY,BSTAR,MEAN_MOTION_DOT,MEAN_MOTION_DDOT,TLE_LINE0,TLE_LINE1,TLE_LINE2,SEMIMAJOR_AXIS,PERIOD,APOGEE,PERIGEE,DECAYED
49734.0,STARLINK-3238,PAYLOAD,2021-12-08 12:00:00,15.41514115,0.0001416999999999,53.2173,291.0841,276.9278,280.5472,-0.021383,-0.00842263,0.0,0 STARLINK-3238,1 49734U 21115L   21342.50001157 -.00842263  00000-0 -21383-1 0  9993,2 49734  53.2173 291.0841 0001417 276.9278 280.5472 15.41514115  2120,6819.776999999999,93.415,442.608,440.676,0.0
49734.0,STARLINK-3238,PAYLOAD,2021-12-08 22:00:00,15.40602408,9.29e-05,53.2177,289.1181,2.6719,347.8344,-0.0052634,-0.00211939,0.0,0 STARLINK-3238,1 49734U 21115L   21342.91667824 -.00211939  00000-0 -52634-2 0  9991,2 49734  53.2177 289.1181 0000929   2.6719 347.8344 15.40602408  2183,6822.467,93.47,444.966,443.698,0.0
49734.0,STARLINK-3238,PAYLOAD,2021-12-09 06:00:00,15.40461224,0.0001005,53.2177,287.5493,35.0876,5.0812,-4.142600000000001e-05,-2.106e-05,0.0,0 STARLINK-3238,1 49734U 21115L   21343.25001157 -.00002106  00000-0 -41426-4 0  9993,2 49734  53.2177 287.5493 0001005  35.0876   5.0812 15.40461224  2239,6822.884,93.478,445.435,444.06300000000016,0.0
49734.0,STARLINK-3238,PAYLOAD,2021-12-09 22:00:00,15.40504129,8.3e-05,53.2161,284.4082,54.67100000000001,84.738,-3.0491e-05,-1.658e-05,0.0,0 STARLINK-3238,1 49734U 21115L   21343.91667824 -.00001658  00000-0 -30491-4 0  9996,2 49734  53.2161 284.4082 0000830  54.6710  84.7380 15.40504129  1539,6822.757,93.476,445.189,444.056,0.0
49734.0,STARLINK-3238,PAYLOAD,2021-12-10 14:00:01,15.40529236,9.87e-05,53.2154,281.2669,55.1793,183.5098,-0.0021435,-0.0008773999999999,0.0,0 STARLINK-3238,1 49734U 21115L   21344.58334491 -.00087740  00000-0 -21435-2 0  9993,2 49734  53.2154 281.2669 0000987  55.1793 183.5098 15.40529236  1638,6822.683000000001,93.474,445.222,443.875,0.0
49734.0,STARLINK-3238,PAYLOAD,2021-12-10 22:00:00,15.40483888,0.0001165,53.2153,279.6964,65.641,222.6784,-0.0015875,-0.00065179,0.0,0 STARLINK-3238,1 49734U 21115L   21344.91667824 -.00065179  00000-0 -15875-2 0  9992,2 49734  53.2153 279.6964 0001165  65.6410 222.6784 15.40483888  1681,6822.816999999999,93.477,445.477,443.887,0.0
49734.0,STARLINK-3238,PAYLOAD,2021-12-11 00:00:00,15.40474084,0.0001247,53.2151,279.3043,62.534,328.1867,-0.0016084,-0.00066004,0.0,0 STARLINK-3238,1 49734U 21115L   21345.00001157 -.00066004  00000-0 -16084-2 0  9995,2 49734  53.2151 279.3043 0001247  62.5340 328.1867 15.40474084  2507,6822.846,93.478,445.562,443.86,0.0
49734.0,STARLINK-3238,PAYLOAD,2021-12-11 12:00:00,15.40452861,0.0001289,53.2147,276.9482,62.1832,222.8821,-0.00058997,-0.00024579,0.0,0 STARLINK-3238,1 49734U 21115L   21345.50001157 -.00024579  00000-0 -58997-3 0  9991,2 49734  53.2147 276.9482 0001289  62.1832 222.8821 15.40452861  2587,6822.909000000002,93.479,445.653,443.894,0.0
49734.0,STARLINK-3238,PAYLOAD,2021-12-11 14:00:01,15.40432291,0.0001234,53.2148,276.555,66.4828,320.9811,0.00048926,0.00019749,0.0,0 STARLINK-3238,1 49734U 21115L   21345.58334491  .00019749  00000-0  48926-3 0  9991,2 49734  53.2148 276.5550 0001234  66.4828 320.9811 15.40432291  1798,6822.97,93.48,445.676,443.99300000000005,0.0
49734.0,STARLINK-3238,PAYLOAD,2021-12-11 22:00:00,15.40471998,0.0001278,53.2149,274.9847,67.6734,9.3529,-0.00026505,-0.0001129,0.0,0 STARLINK-3238,1 49734U 21115L   21345.91667824 -.00011290  00000-0 -26505-3 0  9991,2 49734  53.2149 274.9847 0001278  67.6734   9.3529 15.40471998  2643,6822.852,93.478,445.589,443.845,0.0
49734.0,STARLINK-3238,PAYLOAD,2021-12-12 14:00:01,15.40459511,0.0001298,53.2151,271.843,66.1142,110.1199,0.00015824,6.109e-05,0.0,0 STARLINK-3238,1 49734U 21115L   21346.58334491  .00006109  00000-0  15824-3 0  9999,2 49734  53.2151 271.8430 0001298  66.1142 110.1199 15.40459511  1942,6822.889,93.479,445.64,443.869,0.0
49734.0,STARLINK-3238,PAYLOAD,2021-12-12 22:00:01,15.40488794,0.0001372,53.2153,270.2728,68.2263,157.6599,-0.0012547,-0.00051699,0.0,0 STARLINK-3238,1 49734U 21115L   21346.91668981 -.00051699  00000-0 -12547-2 0  9994,2 49734  53.2153 270.2728 0001372  68.2263 157.6599 15.40488794  2808,6822.803000000001,93.477,445.604,443.732,0.0
49734.0,STARLINK-3238,PAYLOAD,2021-12-13 14:00:01,15.40455182,0.000125,53.2157,267.131,63.977,261.0379,-7.3698e-05,-3.432e-05,0.0,0 STARLINK-3238,1 49734U 21115L   21347.58334491 -.00003432  00000-0 -73698-4 0  9992,2 49734  53.2157 267.1310 0001250  63.9770 261.0379 15.40455182  2906,6822.901999999999,93.479,445.62,443.914,0.0
49734.0,STARLINK-3238,PAYLOAD,2021-12-13 22:00:00,15.40489636,0.0001271,53.216,265.561,61.8163,312.7815,-0.0013636,-0.0005612,0.0,0 STARLINK-3238,1 49734U 21115L   21347.91667824 -.00056120  00000-0 -13636-2 0  9994,2 49734  53.2160 265.5610 0001271  61.8163 312.7815 15.40489636  2158,6822.8,93.477,445.532,443.798,0.0
49734.0,STARLINK-3238,PAYLOAD,2021-12-14 14:00:01,15.40448922,0.000124,53.2162,262.4192,59.675,54.0998,1.708e-05,2.99e-06,0.0,0 STARLINK-3238,1 49734U 21115L   21348.58334491  .00000299  00000-0  17080-4 0  9992,2 49734  53.2162 262.4192 0001240  59.6750  54.0998 15.40448922  2256,6822.92,93.479,445.631,443.939,0.0
49734.0,STARLINK-3238,PAYLOAD,2021-12-14 20:00:01,15.40486979,0.0001355,53.2163,261.2413,62.2737,358.706,-0.0011672,-0.00048141,0.0,0 STARLINK-3238,1 49734U 21115L   21348.83334491 -.00048141  00000-0 -11672-2 0  9999,2 49734  53.2163 261.2413 0001355  62.2737 358.7060 15.40486979  3093,6822.808000000001,93.477,445.598,443.749,0.0
49734.0,STARLINK-3238,PAYLOAD,2021-12-14 22:00:00,15.4047628,0.0001406999999999,53.2163,260.8493,59.8425,103.5418,-0.0010107999999999,-0.00041764,0.0,0 STARLINK-3238,1 49734U 21115L   21348.91667824 -.00041764  00000-0 -10108-2 0  9994,2 49734  53.2163 260.8493 0001407  59.8425 103.5418 15.40476280  2300,6822.84,93.478,445.665,443.745,0.0
49734.0,STARLINK-3238,PAYLOAD,2021-12-15 12:00:00,15.40460518,0.0001488,53.216,258.1003,60.7901,99.3843,-0.00028855,-0.0001225,0.0,0 STARLINK-3238,1 49734U 21115L   21349.50001157 -.00012250  00000-0 -28855-3 0  9998,2 49734  53.2160 258.1003 0001488  60.7901  99.3843 15.40460518  3192,6822.886,93.479,445.766,443.736,0.0
49734.0,STARLINK-3238,PAYLOAD,2021-12-15 14:22:36,15.40424624,0.0001488,53.2158,257.6334,64.2683,285.3343,0.0015454,0.00063602,0.0,0 STARLINK-3238,1 49734U 21115L   21349.59902778  .00063602  00000-0  15454-2 0  9991,2 49734  53.2158 257.6334 0001488  64.2683 285.3343 15.40424624  2410,6822.9919999999975,93.481,445.872,443.842,0.0
49734.0,STARLINK-3238,PAYLOAD,2021-12-15 22:00:01,15.40495238,0.0001556,53.2158,256.1378,62.6802,249.5406,-0.00081224,-0.00033696,0.0,0 STARLINK-3238,1 49734U 21115L   21349.91668981 -.00033696  00000-0 -81224-3 0  9993,2 49734  53.2158 256.1378 0001556  62.6802 249.5406 15.40495238  3268,6822.784000000002,93.476,445.71,443.587,0.0
49734.0,STARLINK-3238,PAYLOAD,2021-12-16 14:00:01,15.40453713,0.000134,53.2152,252.9957,64.0137,347.3988,0.0010888,0.00044622,0.0,0 STARLINK-3238,1 49734U 21115L   21350.58334491  .00044622  00000-0  10888-2 0  9990,2 49734  53.2152 252.9957 0001340  64.0137 347.3988 15.40453713  2563,6822.906,93.479,445.686,443.857,0.0
49734.0,STARLINK-3238,PAYLOAD,2021-12-16 21:33:46,15.40629267,7.04e-05,53.2153,251.5113,216.6042,143.4916,0.0025647,0.0010715,0.0,0 STARLINK-3238,1 49734U 21115L   21350.89845402  .00107150  00000-0  25647-2 0  9998,2 49734  53.2153 251.5113 0000704 216.6042 143.4916 15.40629267  2303,6822.388000000001,93.468,444.733,443.773,0.0
49734.0,STARLINK-3238,PAYLOAD,2021-12-17 02:00:01,15.40461747,0.00015,53.2152,250.6419,57.2938,248.5887,-0.00077901,-0.00032304,0.0,0 STARLINK-3238,1 49734U 21115L   21351.08335648 -.00032304  00000-0 -77901-3 0  9997,2 49734  53.2152 250.6419 0001500  57.2938 248.5887 15.40461747  3446,6822.8830000000025,93.478,445.771,443.724,0.0
49734.0,STARLINK-3238,PAYLOAD,2021-12-17 20:55:14,15.40444283,0.0001375999999999,53.2151,246.9257,61.244,298.8704,0.00013903,5.315e-05,0.0,0 STARLINK-3238,1 49734U 21115L   21351.87169149  .00005315  00000-0  13903-3 0  9997,2 49734  53.2151 246.9257 0001376  61.2440 298.8704 15.40444283  2459,6822.934,93.48,445.73800000000006,443.86,0.0
49734.0,STARLINK-3238,PAYLOAD,2021-12-17 22:00:00,15.40448655,0.0001379,53.215,246.7151,61.1598,188.5607,-0.00010287,-4.629e-05,0.0,0 STARLINK-3238,1 49734U 21115L   21351.91667824 -.00004629  00000-0 -10287-3 0  9996,2 49734  53.2150 246.7151 0001379  61.1598 188.5607 15.40448655  3573,6822.920999999999,93.479,445.727,443.845,0.0
49734.0,STARLINK-3238,PAYLOAD,2021-12-18 14:00:01,15.40435496,0.0001238,53.2149,243.5727,63.381,285.4897,0.0010051,0.00041117,0.0,0 STARLINK-3238,1 49734U 21115L   21352.58334491  .00041117  00000-0  10051-2 0  9990,2 49734  53.2149 243.5727 0001238  63.3810 285.4897 15.40435496  2879,6822.96,93.48,445.67,443.98,0.0
49734.0,STARLINK-3238,PAYLOAD,2021-12-18 21:50:04,15.40457011,0.0001498,53.2154,242.0351,62.4264,297.6894,0.00018315,7.134e-05,0.0,0 STARLINK-3238,1 49734U 21115L   21352.90976895  .00007134  00000-0  18315-3 0  9999,2 49734  53.2154 242.0351 0001498  62.4264 297.6894 15.40457011  2614,6822.897,93.479,445.784,443.739,0.0
49734.0,STARLINK-3238,PAYLOAD,2021-12-19 06:00:00,15.40474352,0.0001349,53.215,240.4333,50.5062,37.5414,-0.00039006,-0.00016416,0.0,0 STARLINK-3238,1 49734U 21115L   21353.25001157 -.00016416  00000-0 -39006-3 0  9993,2 49734  53.2150 240.4333 0001349  50.5062  37.5414 15.40474352  3775,6822.845,93.478,445.631,443.79,0.0
49734.0,STARLINK-3238,PAYLOAD,2021-12-19 14:00:01,15.40449491,0.0001205,53.2151,238.861,60.2075,77.4437,0.00056096,0.00022725,0.0,0 STARLINK-3238,1 49734U 21115L   21353.58334491  .00022725  00000-0  56096-3 0  9995,2 49734  53.2151 238.8610 0001205  60.2075  77.4437 15.40449491  3020,6822.919,93.479,445.606,443.962,0.0
